TIANMU-1 07             
1 57399U 23101A   26065.57454230  .00008352  00000+0  29795-3 0  9991
2 57399  97.2728 118.5929 0004609 142.4105 217.7458 15.29118809145964
STARLINK-31608          
1 59397U 24062X   26068.72815951  .00000093  00000+0  15271-4 0  9998
2 59397  53.1590 255.7398 0001068  86.7838 273.3285 15.30194694109622
